{
    "links": {
        "self": "http://www.neowsapp.com/rest/v1/neo/3843097?api_key=iIulBulltgU6a56xZRHN4H3l9WmuAYTsLGpBGhQ2"
    },
    "id": "3843097",
    "neo_reference_id": "3843097",
    "name": "(2019 NP)",
    "designation": "2019 NP",
    "nasa_jpl_url": "http://ssd.jpl.nasa.gov/sbdb.cgi?sstr=3843097",
    "absolute_magnitude_h": 25.4,
    "estimated_diameter": {
        "kilometers": {
            "estimated_diameter_min": 0.022108281,
            "estimated_diameter_max": 0.0494356193
        },
        "meters": {
            "estimated_diameter_min": 22.1082810359,
            "estimated_diameter_max": 49.435619262
        },
        "miles": {
            "estimated_diameter_min": 0.0137374447,
            "estimated_diameter_max": 0.0307178602
        },
        "feet": {
            "estimated_diameter_min": 72.5337327539,
            "estimated_diameter_max": 162.1903570994
        }
    },
    "is_potentially_hazardous_asteroid": false,
    "close_approach_data": [
        {
            "close_approach_date": "2019-06-26",
            "close_approach_date_full": "2019-Jun-26 13:39",
            "epoch_date_close_approach": 1561556340000,
            "relative_velocity": {
                "kilometers_per_second": "5.7281525357",
                "kilometers_per_hour": "20621.3491285154",
                "miles_per_hour": "12813.3044071045"
            },
            "miss_distance": {
                "astronomical": "0.084599644",
                "lunar": "32.909261516",
                "kilometers": "12655926.54515828",
                "miles": "7864028.095333064"
            },
            "orbiting_body": "Earth"
        }
    ],
    "orbital_data": {
        "orbit_id": "1",
        "orbit_determination_date": "2019-07-03 06:13:07",
        "first_observation_date": "2019-07-01",
        "last_observation_date": "2019-07-03",
        "data_arc_in_days": 2,
        "observations_used": 12,
        "orbit_uncertainty": "8",
        "minimum_orbit_intersection": ".0696288",
        "jupiter_tisserand_invariant": "3.816",
        "epoch_osculation": "2458666.5",
        "eccentricity": ".431339936079909",
        "semi_major_axis": "1.910314251341584",
        "inclination": "2.892314850146254",
        "ascending_node_longitude": "100.6819769799393",
        "orbital_period": "964.3965549460908",
        "perihelion_distance": "1.086319424275366",
        "perihelion_argument": "183.6264499478023",
        "aphelion_distance": "2.734309078407803",
        "perihelion_time": "2458668.321995015838",
        "mean_anomaly": "359.3198667059337",
        "mean_motion": ".3732904251406454",
        "equinox": "J2000",
        "orbit_class": {
            "orbit_class_type": "AMO",
            "orbit_class_description": "Near-Earth asteroid orbits similar to that of 1221 Amor",
            "orbit_class_range": "1.017 AU < q (perihelion) < 1.3 AU"
        }
    },
    "is_sentry_object": false
}